[
    {
        "Altitude(m)": 707287.5133400704,
        "Argument of Periapsis(deg)": 0.011390121186627068,
        "Eccentricity": 0.0,
        "Inclination(deg)": 45.0,
        "Latitude(deg)": 45.055515035425024,
        "Longitude(deg)": -161.01831799978277,
        "Mean Anomaly(deg)": 93.35141664748083,
        "RAAN(deg)": 204.9892480585418,
        "Satellite Name": "Constellation 1 907",
        "Satellite Number": 907,
        "Semi-Major Axis(m)": 7083131.272910544,
        "Time(s)": 190
    },
    {
        "Altitude(m)": 707286.7057077459,
        "Argument of Periapsis(deg)": 0.011450069192872472,
        "Eccentricity": 0.0,
        "Inclination(deg)": 45.0,
        "Latitude(deg)": 45.051917181540624,
        "Longitude(deg)": -160.93683379856444,
        "Mean Anomaly(deg)": 93.41211778773074,
        "RAAN(deg)": 204.98919146937624,
        "Satellite Name": "Constellation 1 907",
        "Satellite Number": 907,
        "Semi-Major Axis(m)": 7083131.272910544,
        "Time(s)": 191
    },
    {
        "Altitude(m)": 707285.8835714523,
        "Argument of Periapsis(deg)": 0.01151001719911788,
        "Eccentricity": 0.0,
        "Inclination(deg)": 45.0,
        "Latitude(deg)": 45.04825521264491,
        "Longitude(deg)": -160.85536041790377,
        "Mean Anomaly(deg)": 93.47281892798063,
        "RAAN(deg)": 204.98913488021063,
        "Satellite Name": "Constellation 1 907",
        "Satellite Number": 907,
        "Semi-Major Axis(m)": 7083131.272910544,
        "Time(s)": 192
    },
    {
        "Altitude(m)": 707285.0469360307,
        "Argument of Periapsis(deg)": 0.011569965205363285,
        "Eccentricity": 0.0,
        "Inclination(deg)": 45.0,
        "Latitude(deg)": 45.04452914496051,
        "Longitude(deg)": -160.77389821417682,
        "Mean Anomaly(deg)": 93.53352006823056,
        "RAAN(deg)": 204.98907829104508,
        "Satellite Name": "Constellation 1 907",
        "Satellite Number": 907,
        "Semi-Major Axis(m)": 7083131.272910544,
        "Time(s)": 193
    },
    {
        "Altitude(m)": 707284.1958064145,
        "Argument of Periapsis(deg)": 0.01162991321160869,
        "Eccentricity": 0.0,
        "Inclination(deg)": 45.0,
        "Latitude(deg)": 45.040738994987926,
        "Longitude(deg)": -160.69244703927293,
        "Mean Anomaly(deg)": 93.59422120848043,
        "RAAN(deg)": 204.9890217018795,
        "Satellite Name": "Constellation 1 907",
        "Satellite Number": 907,
        "Semi-Major Axis(m)": 7083131.272910544,
        "Time(s)": 194
    },
    {
        "Altitude(m)": 707283.3301876119,
        "Argument of Periapsis(deg)": 0.011689861217854095,
        "Eccentricity": 0.0,
        "Inclination(deg)": 45.0,
        "Latitude(deg)": 45.036884779506714,
        "Longitude(deg)": -160.61100724917338,
        "Mean Anomaly(deg)": 93.65492234873031,
        "RAAN(deg)": 204.98896511271394,
        "Satellite Name": "Constellation 1 907",
        "Satellite Number": 907,
        "Semi-Major Axis(m)": 7083131.272910544,
        "Time(s)": 195
    },
    {
        "Altitude(m)": 707282.4500847231,
        "Argument of Periapsis(deg)": 0.0117498092240995,
        "Eccentricity": 0.0,
        "Inclination(deg)": 45.0,
        "Latitude(deg)": 45.03296651557417,
        "Longitude(deg)": -160.52957903156027,
        "Mean Anomaly(deg)": 93.71562348898023,
        "RAAN(deg)": 204.98890852354833,
        "Satellite Name": "Constellation 1 907",
        "Satellite Number": 907,
        "Semi-Major Axis(m)": 7083131.272910544,
        "Time(s)": 196
    },
    {
        "Altitude(m)": 707281.5555029266,
        "Argument of Periapsis(deg)": 0.011809757230344905,
        "Eccentricity": 0.0,
        "Inclination(deg)": 45.0,
        "Latitude(deg)": 45.02898422052514,
        "Longitude(deg)": -160.44816257391042,
        "Mean Anomaly(deg)": 93.77632462923012,
        "RAAN(deg)": 204.98885193438278,
        "Satellite Name": "Constellation 1 907",
        "Satellite Number": 907,
        "Semi-Major Axis(m)": 7083131.272910544,
        "Time(s)": 197
    },
    {
        "Altitude(m)": 707280.6464474885,
        "Argument of Periapsis(deg)": 0.011869705236590313,
        "Eccentricity": 0.0,
        "Inclination(deg)": 45.0,
        "Latitude(deg)": 45.024937911971676,
        "Longitude(deg)": -160.36675806349152,
        "Mean Anomaly(deg)": 93.83702576948005,
        "RAAN(deg)": 204.98879534521723,
        "Satellite Name": "Constellation 1 907",
        "Satellite Number": 907,
        "Semi-Major Axis(m)": 7083131.272910544,
        "Time(s)": 198
    },
    {
        "Altitude(m)": 707279.722923765,
        "Argument of Periapsis(deg)": 0.011929653242835719,
        "Eccentricity": 0.0,
        "Inclination(deg)": 45.0,
        "Latitude(deg)": 45.02082760780264,
        "Longitude(deg)": -160.28536568736004,
        "Mean Anomaly(deg)": 93.89772690972993,
        "RAAN(deg)": 204.98873875605165,
        "Satellite Name": "Constellation 1 907",
        "Satellite Number": 907,
        "Semi-Major Axis(m)": 7083131.272910544,
        "Time(s)": 199
    }
]